OBJECT_NAME,OBJECT_ID,EPOCH,MEAN_MOTION,ECCENTRICITY,INCLINATION,RA_OF_ASC_NODE,ARG_OF_PERICENTER,MEAN_ANOMALY,EPHEMERIS_TYPE,CLASSIFICATION_TYPE,NORAD_CAT_ID,ELEMENT_SET_NO,REV_AT_EPOCH,BSTAR,MEAN_MOTION_DOT,MEAN_MOTION_DDOT
COSMO-SKYMED 1,2007-023A,2026-06-29T11:59:28.635936,14.97164362,.0001632,97.8857,12.4594,85.7547,274.3860,0,U,31598,999,3163,.19439E-3,.2186E-4,0
COSMOS 2428,2007-029A,2026-06-29T12:47:29.794272,14.12928224,.0007132,70.9375,328.5549,111.4035,248.7848,0,U,31792,999,97989,.3777E-4,.22E-6,0
SL-16 R/B,2007-029B,2026-06-29T13:21:00.640224,14.14853926,.0002448,70.9769,297.2272,262.8546,176.9316,0,U,31793,999,98119,-.10638E-3,-.253E-5,0
KORONAS-FOTON,2009-003A,2026-06-29T12:10:08.059008,15.45975117,.0012551,82.4287,159.4051,109.3861,250.8746,0,U,33504,999,96300,.19311E-3,.9476E-4,0
CZ-2C R/B,2011-030B,2026-06-29T11:28:25.141728,14.81500952,.0051992,97.8661,135.6427,348.2120,123.8327,0,U,37731,999,80664,.16951E-3,.1304E-4,0
H-2A R/B,2012-025E,2026-06-29T12:47:14.982720,14.95773119,.0042759,98.4822,156.6963,307.6717,52.0627,0,U,38341,999,76493,.22844E-3,.2523E-4,0
SHIJIAN-16 (SJ-16),2013-057A,2026-06-29T12:07:39.840672,14.92625193,.0016426,74.9727,333.3511,202.0343,158.0141,0,U,39358,999,68818,.87969E-4,.879E-5,0
SL-4 R/B,2014-021B,2026-06-28T22:09:25.129728,15.42180287,.00906116,51.6038,153.2660,148.7771,211.8641,0,U,39679,999,67342,.20340654E-3,.9832E-4,0
ALOS-2,2014-029A,2026-06-29T12:23:01.027104,14.79474787,.0001642,97.9230,277.5031,89.7797,270.3603,0,U,39766,999,65340,.23528E-3,.1706E-4,0
YAOGAN-29,2015-069A,2026-06-29T12:35:10.865184,14.83097393,.0002,98.0025,209.1765,35.6125,324.5221,0,U,41038,999,57245,.11182E-3,.857E-5,0
ASTRO-H (HITOMI),2016-012A,2026-06-29T12:33:30.888288,15.10565801,.0009656,31.0005,354.5152,16.7049,343.3905,0,U,41337,999,56915,.15509E-3,.272E-4,0
HXMT (HUIYAN),2017-034A,2026-06-29T07:16:26.143104,15.18561015,.0032417,43.0141,115.5715,223.8490,135.9784,0,U,42758,999,49950,.20762E-3,.4184E-4,0
SAOCOM 1A,2018-076A,2026-06-29T11:46:17.736384,14.82158873,.0001589,97.8881,7.0599,82.0871,278.0522,0,U,43641,999,41792,.98229E-4,.73E-5,0
H-2A R/B,2018-084L,2026-06-29T13:26:39.614208,15.45626922,.0022017,98.8562,62.1575,357.8549,2.2597,0,U,43682,999,42303,.39888E-3,.19293E-3,0
SAOCOM 1B,2020-059A,2026-06-29T12:31:12.591264,14.82145798,.0001554,97.8882,6.1862,82.1510,277.9880,0,U,46265,999,31531,-.13817E-4,-.162E-5,0
CSS (TIANHE),2021-035A,2026-06-29T12:23:20.014368,15.61337226,.0008429,41.4684,246.9432,179.2587,180.8265,0,U,48274,999,29509,.21176E-3,.1827E-3,0
COSMOS 2550,2021-056A,2026-06-29T06:47:40.526016,15.33841144,.0008362,67.1437,63.3171,269.5485,90.4711,0,U,48865,999,28057,.15162E-3,.4802E-4,0
CZ-2C R/B,2022-058K,2026-06-28T22:43:58.342656,15.62665972,.00317062,50.1856,102.2910,315.9536,43.8912,0,U,52794,999,22748,.37811628E-3,.35081E-3,0
CZ-2C R/B,2022-132E,2026-06-29T11:59:58.799040,15.73005605,.0013489,97.2887,188.0860,44.2146,316.0193,0,U,54039,999,20788,.44821E-3,.61522E-3,0
GSLV R/B,2022-138AN,2026-06-29T08:21:24.604416,14.97313929,.0024088,87.3814,128.9007,103.5964,256.7952,0,U,54149,999,20063,.23114E-3,.2724E-4,0
XRISM,2023-137A,2026-06-29T12:45:04.802112,15.12569031,.0007759,31.0024,279.6377,88.2975,271.8552,0,U,57800,999,15473,.24045E-3,.4399E-4,0
ACS3,2024-077B,2026-06-29T07:58:30.619776,13.94524900,.010242,97.1693,96.4192,53.5542,307.5012,0,U,59588,999,10973,.29857E-2,.4135E-4,0
CZ-8A R/B,2025-231K,2026-06-28T20:39:30.709440,14.30157877,.01164912,50.0055,349.6516,265.1019,93.6588,0,U,66004,999,3661,.59683009E-4,.4E-7,0
SZ-21 MODULE,2025-246C,2026-06-29T12:03:03.415104,15.77448439,.0004929,41.4703,230.5690,94.0321,266.1087,0,U,66515,999,3568,.23411E-3,.39841E-3,0
