COSMO-SKYMED 1          
1 31598U 07023A   26180.49963699  .00002186  00000+0  19439-3 0  9995
2 31598  97.8857  12.4594 0001632  85.7547 274.3860 14.97164362 31631
COSMOS 2428             
1 31792U 07029A   26180.53298373  .00000022  00000+0  37770-4 0  9998
2 31792  70.9375 328.5549 0007132 111.4035 248.7848 14.12928224979897
SL-16 R/B               
1 31793U 07029B   26180.55625741 -.00000253  00000+0 -10638-3 0  9995
2 31793  70.9769 297.2272 0002448 262.8546 176.9316 14.14853926981199
KORONAS-FOTON           
1 33504U 09003A   26180.50703772  .00009476  00000+0  19311-3 0  9998
2 33504  82.4287 159.4051 0012551 109.3861 250.8746 15.45975117963000
CZ-2C R/B               
1 37731U 11030B   26180.47806877  .00001304  00000+0  16951-3 0  9992
2 37731  97.8661 135.6427 0051992 348.2120 123.8327 14.81500952806649
H-2A R/B                
1 38341U 12025E   26180.53281230  .00002523  00000+0  22844-3 0  9994
2 38341  98.4822 156.6963 0042759 307.6717  52.0627 14.95773119764936
SHIJIAN-16 (SJ-16)      
1 39358U 13057A   26180.50532223  .00000879  00000+0  87969-4 0  9999
2 39358  74.9727 333.3511 0016426 202.0343 158.0141 14.92625193688181
SL-4 R/B                
1 39679U 14021B   26179.92320752  .00009832  00000+0  20341-3 0  9991
2 39679  51.6038 153.2660 0090611 148.7771 211.8641 15.42180287673427
ALOS-2                  
1 39766U 14029A   26180.51598411  .00001706  00000+0  23528-3 0  9994
2 39766  97.9230 277.5031 0001642  89.7797 270.3603 14.79474787653405
YAOGAN-29               
1 41038U 15069A   26180.52443131  .00000857  00000+0  11182-3 0  9992
2 41038  98.0025 209.1765 0002000  35.6125 324.5221 14.83097393572455
ASTRO-H (HITOMI)        
1 41337U 16012A   26180.52327417  .00002720  00000+0  15509-3 0  9999
2 41337  31.0005 354.5152 0009656  16.7049 343.3905 15.10565801569152
HXMT (HUIYAN)           
1 42758U 17034A   26180.30308036  .00004184  00000+0  20762-3 0  9997
2 42758  43.0141 115.5715 0032417 223.8490 135.9784 15.18561015499508
SAOCOM 1A               
1 43641U 18076A   26180.49048306  .00000730  00000+0  98229-4 0  9994
2 43641  97.8881   7.0599 0001589  82.0871 278.0522 14.82158873417926
H-2A R/B                
1 43682U 18084L   26180.56018072  .00019293  00000+0  39888-3 0  9992
2 43682  98.8562  62.1575 0022017 357.8549   2.2597 15.45626922423031
SAOCOM 1B               
1 46265U 20059A   26180.52167351 -.00000162  00000+0 -13817-4 0  9990
2 46265  97.8882   6.1862 0001554  82.1510 277.9880 14.82145798315315
CSS (TIANHE)            
1 48274U 21035A   26180.51620387  .00018270  00000+0  21176-3 0  9992
2 48274  41.4684 246.9432 0008429 179.2587 180.8265 15.61337226295097
COSMOS 2550             
1 48865U 21056A   26180.28310794  .00004802  00000+0  15162-3 0  9997
2 48865  67.1437  63.3171 0008362 269.5485  90.4711 15.33841144280578
CZ-2C R/B               
1 52794U 22058K   26179.94720304  .00035081  00000+0  37812-3 0  9998
2 52794  50.1856 102.2910 0031706 315.9536  43.8912 15.62665972227487
CZ-2C R/B               
1 54039U 22132E   26180.49998610  .00061522  00000+0  44821-3 0  9991
2 54039  97.2887 188.0860 0013489  44.2146 316.0193 15.73005605207881
GSLV R/B                
1 54149U 22138AN  26180.34820144  .00002724  00000+0  23114-3 0  9990
2 54149  87.3814 128.9007 0024088 103.5964 256.7952 14.97313929200638
XRISM                   
1 57800U 23137A   26180.53130558  .00004399  00000+0  24045-3 0  9995
2 57800  31.0024 279.6377 0007759  88.2975 271.8552 15.12569031154733
ACS3                    
1 59588U 24077B   26180.33229884  .00004135  00000+0  29857-2 0  9996
2 59588  97.1693  96.4192 0102420  53.5542 307.5012 13.94524900109731
CZ-8A R/B               
1 66004U 25231K   26179.86077210  .00000004  00000+0  59683-4 0  9993
2 66004  50.0055 349.6516 0116491 265.1019  93.6588 14.30157877 36611
SZ-21 MODULE            
1 66515U 25246C   26180.50212286  .00039841  00000+0  23411-3 0  9993
2 66515  41.4703 230.5690 0004929  94.0321 266.1087 15.77448439 35686
